stk.v.9.0
#Ephemeris file written by EMTG_v8 core program compiled Mar  9 2015 09:52:54
BEGIN Ephemeris
ScenarioEpoch 14 MAY 2025 20:56:55.251
CentralBody Sun
CoordinateSystem J2000
InterpolationMethod Lagrange
InterpolationSamplesM1 5
NumberOfEphemerisPoints 966

EphemerisTimePosVelMassControl
 4.10074477391434E+07 -1.69935855586275E+11 -1.65322224957332E+11 -9.15292393342131E+10  2.03814698636437E+04 -1.31392805018424E+04 -2.77742107381938E+03  1.29674131864723E+03 -2.26921895385420E-07  6.09402979190300E-08 -3.37114435033930E-07
 4.10938477391434E+07 -1.68169778942400E+11 -1.66452451372800E+11 -9.17664401166271E+10  2.04998098344262E+04 -1.30231557237500E+04 -2.71326567592377E+03  1.29674131838118E+03  2.81771206367000E-09  4.09821019564660E-07 -4.32889800228150E-07
 4.11802477391434E+07 -1.66393510136768E+11 -1.67572589586507E+11 -9.19980792173031E+10  2.06173966805067E+04 -1.29057573456690E+04 -2.64867883331240E+03  1.29674131811497E+03  2.81771206367000E-09  4.09821019564660E-07 -4.32889800228150E-07
 4.12666477391434E+07 -1.64607114980590E+11 -1.68682529571055E+11 -9.22241194626396E+10  2.07342132249129E+04 -1.27870856737119E+04 -2.58366295317433E+03  1.29674131784861E+03  2.81771206367000E-09  4.09821019564660E-07 -4.32889800228150E-07
 4.13530477391434E+07 -1.62810660773980E+11 -1.69782161335058E+11 -9.24445238916470E+10  2.08502421797353E+04 -1.26671412361505E+04 -2.51822055011286E+03  1.29674131758210E+03  2.81771206367000E-09  4.09821019564660E-07 -4.32889800228150E-07
 4.14394477391434E+07 -1.61004216315406E+11 -1.70871374942523E+11 -9.26592557652850E+10  2.09654661493425E+04 -1.25459247875701E+04 -2.45235424745188E+03  1.29674131731545E+03  2.81771206367000E-09  4.09821019564660E-07 -4.32889800228150E-07
 4.15258477391434E+07 -1.59187851910851E+11 -1.71950060532577E+11 -9.28682785759113E+10  2.10798676337264E+04 -1.24234373130108E+04 -2.38606677852002E+03  1.29674131704865E+03  2.81771206367000E-09  4.09821019564660E-07 -4.32889800228150E-07
 4.16122477391434E+07 -1.57361639382685E+11 -1.73018108339559E+11 -9.30715560568410E+10  2.11934290319779E+04 -1.22996800320940E+04 -2.31936098791101E+03  1.29674131678172E+03  2.81771206367000E-09  4.09821019564660E-07 -4.32889800228150E-07
 4.16986477391434E+07 -1.55525652078224E+11 -1.74075408713466E+11 -9.32690521920132E+10  2.13061326458938E+04 -1.21746544031293E+04 -2.25223983271866E+03  1.29674131651465E+03  2.81771206367000E-09  4.09821019564660E-07 -4.32889800228150E-07
 4.17850477391434E+07 -1.53679964877980E+11 -1.75121852140750E+11 -9.34607312257636E+10  2.14179606837168E+04 -1.20483621271995E+04 -2.18470638374485E+03  1.29674131624746E+03  2.81771206367000E-09  4.09821019564660E-07 -4.32889800228150E-07
 4.18714477391434E+07 -1.51824654203573E+11 -1.76157329265473E+11 -9.36465576726999E+10  2.15288952640088E+04 -1.19208051522194E+04 -2.11676382667906E+03  1.29674131598014E+03  2.81771206367000E-09  4.09821019564660E-07 -4.32889800228150E-07
 4.19578477391434E+07 -1.49959798025311E+11 -1.77181730910801E+11 -9.38264963276779E+10  2.16389184196594E+04 -1.17919856769655E+04 -2.04841546324767E+03  1.29674131571271E+03  2.81771206367000E-09  4.09821019564660E-07 -4.32889800228150E-07
 4.20326339326220E+07 -1.48337968254545E+11 -1.78059406997327E+11 -9.39774670267719E+10  2.17334025594708E+04 -1.16794645298606E+04 -1.98892940569996E+03  1.29674131548112E+03  2.81771206367000E-09  4.09821019564660E-07 -4.32889800228150E-07
 4.21190339326220E+07 -1.46455517943697E+11 -1.79062855319637E+11 -9.41463284335040E+10  2.18416770775889E+04 -1.15482965118829E+04 -1.91983319808169E+03  1.29674131509445E+03  1.98836269893480E-07  7.65955652459740E-07  3.39808706062430E-07
 4.22054339326220E+07 -1.44563754199881E+11 -1.80054916496823E+11 -9.43092028073427E+10  2.19489882481483E+04 -1.14158737195478E+04 -1.85034129802102E+03  1.29674131470762E+03  1.98836269893480E-07  7.65955652459740E-07  3.39808706062430E-07
 4.22918339326220E+07 -1.42662761044598E+11 -1.81035482252939E+11 -9.44660561220451E+10  2.20553178130553E+04 -1.12821993585885E+04 -1.78045746599555E+03  1.29674131432063E+03  1.98836269893480E-07  7.65955652459740E-07  3.39808706062430E-07
 4.23782339326220E+07 -1.40752624079654E+11 -1.82004444600647E+11 -9.46168546814997E+10  2.21606474499874E+04 -1.11472769046604E+04 -1.71018558362675E+03  1.29674131393351E+03  1.98836269893480E-07  7.65955652459740E-07  3.39808706062430E-07
 4.24646339326220E+07 -1.38833430492508E+11 -1.82961695864702E+11 -9.47615651302345E+10  2.22649587772033E+04 -1.10111101071199E+04 -1.63952965461847E+03  1.29674131354624E+03  1.98836269893480E-07  7.65955652459740E-07  3.39808706062430E-07
 4.25510339326220E+07 -1.36905269061189E+11 -1.83907128705763E+11 -9.49001544640041E+10  2.23682333584891E+04 -1.08737029927467E+04 -1.56849380565348E+03  1.29674131315885E+03  1.98836269893480E-07  7.65955652459740E-07  3.39808706062430E-07
 4.26374339326220E+07 -1.34968230158786E+11 -1.84840636144517E+11 -9.50325900404518E+10  2.24704527082435E+04 -1.07350598694055E+04 -1.49708228724651E+03  1.29674131277132E+03  1.98836269893480E-07  7.65955652459740E-07  3.39808706062430E-07
 4.27238339326220E+07 -1.33022405757492E+11 -1.85762111586126E+11 -9.51588395898444E+10  2.25715982966989E+04 -1.05951853296423E+04 -1.42529947455183E+03  1.29674131238367E+03  1.98836269893480E-07  7.65955652459740E-07  3.39808706062430E-07
 4.28102339326220E+07 -1.31067889432185E+11 -1.86671448844972E+11 -9.52788712258737E+10  2.26716515552800E+04 -1.04540842542112E+04 -1.35314986812361E+03  1.29674131199591E+03  1.98836269893480E-07  7.65955652459740E-07  3.39808706062430E-07
 4.28966339326220E+07 -1.29104776363548E+11 -1.87568542169709E+11 -9.53926534565229E+10  2.27705938820991E+04 -1.03117618155273E+04 -1.28063809462746E+03  1.29674131160803E+03  1.98836269893480E-07  7.65955652459740E-07  3.39808706062430E-07
 4.29830339326220E+07 -1.27133163340704E+11 -1.88453286268610E+11 -9.55001551949905E+10  2.28684066475867E+04 -1.01682234810413E+04 -1.20776890750112E+03  1.29674131122005E+03  1.98836269893480E-07  7.65955652459740E-07  3.39808706062430E-07
 4.30578201261005E+07 -1.25419785616892E+11 -1.89209052222433E+11 -9.55881120811815E+10  2.29521451150587E+04 -1.00430021519049E+04 -1.14440991091813E+03  1.29674131088413E+03  1.98836269893480E-07  7.65955652459740E-07  3.39808706062430E-07
 4.31442201261005E+07 -1.23432579506026E+11 -1.90070478088291E+11 -9.56838154003986E+10  2.30478007223085E+04 -9.89721111186566E+03 -1.07088708918623E+03  1.29674131061799E+03 -9.71048130790000E-10  5.90140778466970E-07 -1.99914704790400E-08
 4.32306201261005E+07 -1.21437159723822E+11 -1.90919255783593E+11 -9.57731514892243E+10  2.31422732827174E+04 -9.75022150672294E+03 -9.97021182562381E+02  1.29674131035178E+03 -9.71048130790000E-10  5.90140778466970E-07 -1.99914704790400E-08
 4.33170201261005E+07 -1.19433629292541E+11 -1.91755282036857E+11 -9.58560909309392E+10  2.32355441151282E+04 -9.60203997456094E+03 -9.22817439757008E+02  1.29674131008552E+03 -9.71048130790000E-10  5.90140778466970E-07 -1.99914704790400E-08
 4.34034201261005E+07 -1.17422092848473E+11 -1.92578454163509E+11 -9.59326047678918E+10  2.33275945400039E+04 -9.45267346365011E+03 -8.48281238685561E+02  1.29674130981919E+03 -9.71048130790000E-10  5.90140778466970E-07 -1.99914704790400E-08
 4.34898201261005E+07 -1.15402656641519E+11 -1.93388670092809E+11 -9.60026645126759E+10  2.34184058858324E+04 -9.30212923526911E+03 -7.73418086795943E+02  1.29674130955282E+03 -9.71048130790000E-10  5.90140778466970E-07 -1.99914704790400E-08
 4.35762201261005E+07 -1.13375428534218E+11 -1.94185828395012E+11 -9.60662421593344E+10  2.35079594956580E+04 -9.15041486641649E+03 -6.98233621333117E+02  1.29674130928639E+03 -9.71048130790000E-10  5.90140778466970E-07 -1.99914704790400E-08
 4.36626201261005E+07 -1.11340518000202E+11 -1.94969828308758E+11 -9.61233101945829E+10  2.35962367337379E+04 -8.99753825240723E+03 -6.22733609539157E+02  1.29674130901991E+03 -9.71048130790000E-10  5.90140778466970E-07 -1.99914704790400E-08
 4.37490201261005E+07 -1.09298036122071E+11 -1.95740569768681E+11 -9.61738416090478E+10  2.36832189923212E+04 -8.84350760934953E+03 -5.46923948787053E+02  1.29674130875339E+03 -9.71048130790000E-10  5.90140778466970E-07 -1.99914704790400E-08
 4.38354201261005E+07 -1.07248095588677E+11 -1.96497953433235E+11 -9.62178099085124E+10  2.37688876985472E+04 -8.68833147649697E+03 -4.70810666646603E+02  1.29674130848683E+03 -9.71048130790000E-10  5.90140778466970E-07 -1.99914704790400E-08
 4.39218201261005E+07 -1.05190810691809E+11 -1.97241880712701E+11 -9.62551891251670E+10  2.38532243214625E+04 -8.53201871847134E+03 -3.94399920880745E+02  1.29674130822023E+03 -9.71048130790000E-10  5.90140778466970E-07 -1.99914704790400E-08
 4.40082201261005E+07 -1.03126297322261E+11 -1.97972253797397E+11 -9.62859538288544E+10  2.39362103791515E+04 -8.37457852735140E+03 -3.17697999370725E+02  1.29674130795359E+03 -9.71048130790000E-10  5.90140778466970E-07 -1.99914704790400E-08
 4.40830063195791E+07 -1.01333548149997E+11 -1.98593432255607E+11 -9.63072233713031E+10  2.40069368632373E+04 -8.23739833706243E+03 -2.51076127142368E+02  1.29674130772277E+03 -9.71048130790000E-10  5.90140778466970E-07 -1.99914704790400E-08
 4.41694063195791E+07 -9.92558647418826E+10 -1.99298260254768E+11 -9.63255820900522E+10  2.40873541306344E+04 -8.07788054092408E+03 -1.73848248969190E+02  1.29674130766823E+03  8.27140078651900E-08  7.37489194158100E-08 -4.79447280765700E-08
 4.42558063195791E+07 -9.71712937681563E+10 -1.99989258354015E+11 -9.63372565023785E+10  2.41663682084935E+04 -7.91726348289940E+03 -9.63479325163384E+01  1.29674130761369E+03  8.27140078651900E-08  7.37489194158100E-08 -4.79447280765700E-08
 4.43422063195791E+07 -9.50799572522260E+10 -2.00666332027226E+11 -9.63422233619626E+10  2.42439608735318E+04 -7.75555763790718E+03 -1.85819665867849E+01  1.29674130755914E+03  8.27140078651900E-08  7.37489194158100E-08 -4.79447280765700E-08
END Ephemeris
